NORAD_CAT_ID,OBJECT_NAME,OBJECT_TYPE,EPOCH,MEAN_MOTION,ECCENTRICITY,INCLINATION,RA_OF_ASC_NODE,ARG_OF_PERICENTER,MEAN_ANOMALY,BSTAR,MEAN_MOTION_DOT,MEAN_MOTION_DDOT,TLE_LINE0,TLE_LINE1,TLE_LINE2,SEMIMAJOR_AXIS,PERIOD,APOGEE,PERIGEE,DECAYED
53610.0,STARLINK-4610,PAYLOAD,2024-04-25 02:16:19,15.0883602,0.0001485,53.2184,63.0184,99.3755,260.7405,-4.3051e-05,-9.73e-06,0.0,0 STARLINK-4610,1 53610U 22104Y   24116.09466593 -.00000973  00000-0 -43051-4 0  9998,2 53610  53.2184  63.0184 0001485  99.3755 260.7405 15.08836020 91869,6917.893,95.438,540.785,538.73,0.0
53610.0,STARLINK-4610,PAYLOAD,2024-04-25 14:59:24,15.08839401,0.0001848,53.2158,60.6367,135.5573,224.5568,0.00015616,2.198e-05,0.0,0 STARLINK-4610,1 53610U 22104Y   24116.62458391  .00002198  00000-0  15616-3 0  9998,2 53610  53.2158  60.6367 0001848 135.5573 224.5568 15.08839401 92517,6917.882,95.438,541.026,538.469,0.0
53610.0,STARLINK-4610,PAYLOAD,2024-04-26 03:42:28,15.0885301,0.0001135,53.2183,58.2593,86.0365,274.0756,0.00020837,3.031e-05,0.0,0 STARLINK-4610,1 53610U 22104Y   24117.15449896  .00003031  00000-0  20837-3 0  9995,2 53610  53.2183  58.2593 0001135  86.0365 274.0756 15.08853010 92024,6917.841,95.437,540.491,538.92,0.0
53610.0,STARLINK-4610,PAYLOAD,2024-04-26 13:14:47,15.08839985,8.55e-05,53.2189,56.4762,99.9799,260.1289,1.7289e-05,-1.3e-07,0.0,0 STARLINK-4610,1 53610U 22104Y   24117.55194402 -.00000013  00000-0  17289-4 0  9995,2 53610  53.2189  56.4762 0000855  99.9799 260.1289 15.08839985 92088,6917.88,95.438,540.337,539.154,0.0
53610.0,STARLINK-4610,PAYLOAD,2024-04-27 05:08:38,15.08860776,0.0001639,53.2182,53.5018,127.1046,233.0096,0.00023453,3.449e-05,0.0,0 STARLINK-4610,1 53610U 22104Y   24118.21433035  .00003449  00000-0  23453-3 0  9991,2 53610  53.2182  53.5018 0001639 127.1046 233.0096 15.08860776 92181,6917.817,95.436,540.816,538.548,0.0
53610.0,STARLINK-4610,PAYLOAD,2024-04-27 13:05:35,15.08832623,0.0001723,53.2189,52.0154,120.4816,239.6346,-5.7728e-06,-3.8e-06,0.0,0 STARLINK-4610,1 53610U 22104Y   24118.54555351 -.00000380  00000-0 -57728-5 0  9990,2 53610  53.2189  52.0154 0001723 120.4816 239.6346 15.08832623 92234,6917.903,95.438,540.96,538.576,0.0
53610.0,STARLINK-4610,PAYLOAD,2024-04-28 12:56:22,15.08843719,0.000152,53.2185,47.5561,91.4249,268.6917,-4.7349e-05,-1.042e-05,0.0,0 STARLINK-4610,1 53610U 22104Y   24119.53915054 -.00001042  00000-0 -47349-4 0  9993,2 53610  53.2185  47.5561 0001520  91.4249 268.6917 15.08843719 92383,6917.869,95.437,540.786,538.683,0.0
53610.0,STARLINK-4610,PAYLOAD,2024-04-28 22:28:41,15.08844309,0.0001649,53.2179,45.7717,91.1234,268.9947,0.00011442,1.534e-05,0.0,0 STARLINK-4610,1 53610U 22104Y   24119.93658750  .00001534  00000-0  11442-3 0  9992,2 53610  53.2179  45.7717 0001649  91.1234 268.9947 15.08844309 93015,6917.867,95.437,540.873,538.591,0.0
53610.0,STARLINK-4610,PAYLOAD,2024-04-29 01:39:27,15.08847404,0.0001621,53.2178,45.1762,94.2593,265.8584,0.00023422,3.442e-05,0.0,0 STARLINK-4610,1 53610U 22104Y   24120.06906826  .00003442  00000-0  23422-3 0  9999,2 53610  53.2178  45.1762 0001621  94.2593 265.8584 15.08847404 93034,6917.858,95.437,540.844,538.601,0.0
53610.0,STARLINK-4610,PAYLOAD,2024-04-29 22:19:28,15.08834682,0.0001577,53.2183,41.3137,86.0349,274.0823,0.00012489,1.7e-05,0.0,0 STARLINK-4610,1 53610U 22104Y   24120.93019540  .00001700  00000-0  12489-3 0  9999,2 53610  53.2183  41.3137 0001577  86.0349 274.0823 15.08834682 93168,6917.897,95.438,540.853,538.671,0.0
53610.0,STARLINK-4610,PAYLOAD,2024-04-30 01:30:15,15.08835206,0.0001472,53.2166,40.7186,79.257,280.8588,0.00017472,2.493e-05,0.0,0 STARLINK-4610,1 53610U 22104Y   24121.06267457  .00002493  00000-0  17472-3 0  9993,2 53610  53.2166  40.7186 0001472  79.2570 280.8588 15.08835206 92615,6917.895,95.438,540.778,538.742,0.0
53610.0,STARLINK-4610,PAYLOAD,2024-04-30 11:02:33,15.08839808,0.0001432,53.2175,38.9351,75.6995,284.4156,7.3147e-05,8.76e-06,0.0,0 STARLINK-4610,1 53610U 22104Y   24121.46011379  .00000876  00000-0  73147-4 0  9992,2 53610  53.2175  38.9351 0001432  75.6995 284.4156 15.08839808 93248,6917.881,95.438,540.737,538.755,0.0
53610.0,STARLINK-4610,PAYLOAD,2024-04-30 22:10:15,15.0884254,0.0001487,53.2184,36.8526,80.8635,279.2525,5.3782e-05,5.68e-06,0.0,0 STARLINK-4610,1 53610U 22104Y   24121.92379269  .00000568  00000-0  53782-4 0  9999,2 53610  53.2184  36.8526 0001487  80.8635 279.2525 15.08842540 93315,6917.873,95.437,540.766,538.709,0.0
53610.0,STARLINK-4610,PAYLOAD,2024-05-01 10:53:20,15.08843891,0.0001316,53.2171,34.4772,89.4044,270.7099,1.7377e-05,-1.1e-07,0.0,0 STARLINK-4610,1 53610U 22104Y   24122.45370972 -.00000011  00000-0  17377-4 0  9994,2 53610  53.2171  34.4772 0001316  89.4044 270.7099 15.08843891 92825,6917.868,95.437,540.644,538.823,0.0
53610.0,STARLINK-4610,PAYLOAD,2024-05-01 18:50:16,15.08834396,0.0001467,53.2186,32.9924,97.4479,262.668,2.5944e-05,1.25e-06,0.0,0 STARLINK-4610,1 53610U 22104Y   24122.78491757  .00000125  00000-0  25944-4 0  9999,2 53610  53.2186  32.9924 0001467  97.4479 262.6680 15.08834396 92872,6917.898,95.438,540.777,538.748,0.0
53610.0,STARLINK-4610,PAYLOAD,2024-05-02 10:44:07,15.08839136,0.0001387,53.2186,30.0143,86.479,273.6361,5.475e-05,5.84e-06,0.0,0 STARLINK-4610,1 53610U 22104Y   24123.44731402  .00000584  00000-0  54750-4 0  9993,2 53610  53.2186  30.0143 0001387  86.4790 273.6361 15.08839136 93549,6917.883,95.438,540.708,538.789,0.0
53610.0,STARLINK-4610,PAYLOAD,2024-05-03 02:37:58,15.08853921,0.0001138,53.2163,27.0408,102.1405,257.9715,0.00012282,1.668e-05,0.0,0 STARLINK-4610,1 53610U 22104Y   24124.10970139  .00001668  00000-0  12282-3 0  9996,2 53610  53.2163  27.0408 0001138 102.1405 257.9715 15.08853921 93071,6917.838,95.437,540.49,538.916,0.0
53610.0,STARLINK-4610,PAYLOAD,2024-05-03 10:34:54,15.0885305,0.0001472,53.2187,25.5528,81.1747,278.9412,4.16e-05,3.74e-06,0.0,0 STARLINK-4610,1 53610U 22104Y   24124.44090374  .00000374  00000-0  41600-4 0  9997,2 53610  53.2187  25.5528 0001472  81.1747 278.9412 15.08853050 93697,6917.841,95.437,540.724,538.687,0.0
53610.0,STARLINK-4610,PAYLOAD,2024-05-03 23:17:59,15.08839698,0.0001528,53.2158,23.1772,89.8065,270.3102,9.7889e-05,1.27e-05,0.0,0 STARLINK-4610,1 53610U 22104Y   24124.97083057  .00001270  00000-0  97889-4 0  9991,2 53610  53.2158  23.1772 0001528  89.8065 270.3102 15.08839698 93773,6917.881,95.438,540.803,538.689,0.0
53610.0,STARLINK-4610,PAYLOAD,2024-05-04 02:28:45,15.08846455,0.0001342,53.2178,22.5798,88.025,272.0896,9.1106e-05,1.163e-05,0.0,0 STARLINK-4610,1 53610U 22104Y   24125.10330588  .00001163  00000-0  91106-4 0  9998,2 53610  53.2178  22.5798 0001342  88.0250 272.0896 15.08846455 93225,6917.861,95.437,540.654,538.797,0.0
53610.0,STARLINK-4610,PAYLOAD,2024-05-04 10:25:41,15.08839266,0.0001335,53.2179,21.0933,91.0746,269.0399,1.7769e-05,-5e-08,0.0,0 STARLINK-4610,1 53610U 22104Y   24125.43451212 -.00000005  00000-0  17769-4 0  9990,2 53610  53.2179  21.0933 0001335  91.0746 269.0399 15.08839266 93278,6917.883,95.438,540.671,538.824,0.0
53610.0,STARLINK-4610,PAYLOAD,2024-05-05 02:19:33,15.08845936,0.0001349,53.2179,18.1176,103.4417,256.6726,-4.1064e-05,-9.42e-06,0.0,0 STARLINK-4610,1 53610U 22104Y   24126.09691041 -.00000942  00000-0 -41064-4 0  9995,2 53610  53.2179  18.1176 0001349 103.4417 256.6726 15.08845936 93943,6917.862,95.437,540.66,538.794,0.0
53610.0,STARLINK-4610,PAYLOAD,2024-05-05 21:24:10,15.08844016,0.0001392,53.2189,14.5492,96.3789,263.7361,7.8979e-05,9.69e-06,0.0,0 STARLINK-4610,1 53610U 22104Y   24126.89178676  .00000969  00000-0  78979-4 0  9999,2 53610  53.2189  14.5492 0001392  96.3789 263.7361 15.08844016 93497,6917.868,95.437,540.696,538.77,0.0
53610.0,STARLINK-4610,PAYLOAD,2024-05-05 22:59:33,15.08843138,0.0001218,53.2184,14.2532,94.4749,265.6382,0.00010013,1.306e-05,0.0,0 STARLINK-4610,1 53610U 22104Y   24126.95802660  .00001306  00000-0  10013-3 0  9993,2 53610  53.2184  14.2532 0001218  94.4749 265.6382 15.08843138 94079,6917.871,95.437,540.578,538.893,0.0
53610.0,STARLINK-4610,PAYLOAD,2024-05-06 21:14:57,15.08832109,0.0001459,53.2197,10.0918,97.5053,262.6105,0.00027581,4.103e-05,0.0,0 STARLINK-4610,1 53610U 22104Y   24127.88538901  .00004103  00000-0  27581-3 0  9996,2 53610  53.2197  10.0918 0001459  97.5053 262.6105 15.08832109 93642,6917.905,95.438,540.779,538.76,0.0
53610.0,STARLINK-4610,PAYLOAD,2024-05-07 21:05:45,15.08834944,0.0001359,53.2184,5.6312,104.3857,255.7286,-6.03e-05,-1.247e-05,0.0,0 STARLINK-4610,1 53610U 22104Y   24128.87899797 -.00001247  00000-0 -60300-4 0  9994,2 53610  53.2184   5.6312 0001359 104.3857 255.7286 15.08834944 93792,6917.896,95.438,540.701,538.821,0.0
53610.0,STARLINK-4610,PAYLOAD,2024-05-08 08:13:27,15.08836068,0.0001174,53.2173,3.5484,89.4696,270.6431,-5.2215e-05,-1.119e-05,0.0,0 STARLINK-4610,1 53610U 22104Y   24129.34267885 -.00001119  00000-0 -52215-4 0  9998,2 53610  53.2173   3.5484 0001174  89.4696 270.6431 15.08836068 94435,6917.892,95.438,540.57,538.945,0.0
53610.0,STARLINK-4610,PAYLOAD,2024-05-08 22:31:55,15.08849733,0.0001355,53.2167,0.8727,125.4611,234.6508,-0.00014446,-2.587e-05,0.0,0 STARLINK-4610,1 53610U 22104Y   24129.93883446 -.00002587  00000-0 -14446-3 0  9993,2 53610  53.2167   0.8727 0001355 125.4611 234.6508 15.08849733 94525,6917.851,95.437,540.653,538.778,0.0
53610.0,STARLINK-4610,PAYLOAD,2024-05-09 08:04:14,15.08839262,0.0001171,53.2176,359.0886,84.1408,275.9718,0.00016357,2.316e-05,0.0,0 STARLINK-4610,1 53610U 22104Y   24130.33627487  .00002316  00000-0  16357-3 0  9991,2 53610  53.2176 359.0886 0001171  84.1408 275.9718 15.08839262 94584,6917.883,95.438,540.558,538.938,0.0
53610.0,STARLINK-4610,PAYLOAD,2024-05-09 20:47:19,15.0882858,0.0001219,53.2182,356.7101,88.405,271.7082,0.00026622,3.95e-05,0.0,0 STARLINK-4610,1 53610U 22104Y   24130.86620223  .00003950  00000-0  26622-3 0  9991,2 53610  53.2182 356.7101 0001219  88.4050 271.7082 15.08828580 94093,6917.915,95.438,540.624,538.937,0.0
